{
"type": "FeatureCollection",
"name": "singapore_malls_v2",
"crs": { "type": "name", "properties": { "name": "urn:ogc:def:crs:OGC:1.3:CRS84" } },
"features": [
{ "type": "Feature", "properties": { "Mall Name": "100 AM" }, "geometry": { "type": "Point", "coordinates": [ 103.843470736610001, 1.27458821795426 ] } },
{ "type": "Feature", "properties": { "Mall Name": "313@Somerset" }, "geometry": { "type": "Point", "coordinates": [ 103.838360664484995, 1.30101436404056 ] } },
{ "type": "Feature", "properties": { "Mall Name": "Aperia" }, "geometry": { "type": "Point", "coordinates": [ 103.864313218160007, 1.3104736675734 ] } },
{ "type": "Feature", "properties": { "Mall Name": "Balestier Hill Shopping Centre" }, "geometry": { "type": "Point", "coordinates": [ 103.842571612968001, 1.32559594839311 ] } },
{ "type": "Feature", "properties": { "Mall Name": "Bugis Cube" }, "geometry": { "type": "Point", "coordinates": [ 103.855635339249005, 1.2981408343975 ] } },
{ "type": "Feature", "properties": { "Mall Name": "Bugis Junction" }, "geometry": { "type": "Point", "coordinates": [ 103.855411173758, 1.29911287475873 ] } },
{ "type": "Feature", "properties": { "Mall Name": "Bugis+" }, "geometry": { "type": "Point", "coordinates": [ 103.855172625541996, 1.30095171530648 ] } },
{ "type": "Feature", "properties": { "Mall Name": "Capitol Piazza" }, "geometry": { "type": "Point", "coordinates": [ 103.851261982148998, 1.29307884763132 ] } },
{ "type": "Feature", "properties": { "Mall Name": "Cathay Cineleisure Orchard" }, "geometry": { "type": "Point", "coordinates": [ 103.836463810772997, 1.30146393496315 ] } },
{ "type": "Feature", "properties": { "Mall Name": "The Centrepoint" }, "geometry": { "type": "Point", "coordinates": [ 103.840034074857996, 1.30145045537088 ] } },
{ "type": "Feature", "properties": { "Mall Name": "City Square Mall" }, "geometry": { "type": "Point", "coordinates": [ 103.856626855767999, 1.3113827185663 ] } },
{ "type": "Feature", "properties": { "Mall Name": "CityLink Mall" }, "geometry": { "type": "Point", "coordinates": [ 103.854316064564003, 1.29260349413333 ] } },
{ "type": "Feature", "properties": { "Mall Name": "Duo" }, "geometry": { "type": "Point", "coordinates": [ 103.858401687739999, 1.29953434891664 ] } },
{ "type": "Feature", "properties": { "Mall Name": "Far East Plaza" }, "geometry": { "type": "Point", "coordinates": [ 103.833818438639, 1.30730468891062 ] } },
{ "type": "Feature", "properties": { "Mall Name": "Funan" }, "geometry": { "type": "Point", "coordinates": [ 103.849989790085004, 1.29134759697794 ] } },
{ "type": "Feature", "properties": { "Mall Name": "Great World City" }, "geometry": { "type": "Point", "coordinates": [ 103.832022146655007, 1.29342272650003 ] } },
{ "type": "Feature", "properties": { "Mall Name": "HDB Hub" }, "geometry": { "type": "Point", "coordinates": [ 103.849849496619996, 1.33201387005935 ] } },
{ "type": "Feature", "properties": { "Mall Name": "ION Orchard" }, "geometry": { "type": "Point", "coordinates": [ 103.831988903794993, 1.30399286856099 ] } },
{ "type": "Feature", "properties": { "Mall Name": "Junction 8" }, "geometry": { "type": "Point", "coordinates": [ 103.848553703258005, 1.35017243180201 ] } },
{ "type": "Feature", "properties": { "Mall Name": "Knightsbridge" }, "geometry": { "type": "Point", "coordinates": [ 103.836283923443006, 1.3029831225958 ] } },
{ "type": "Feature", "properties": { "Mall Name": "Liat Towers" }, "geometry": { "type": "Point", "coordinates": [ 103.830722581168004, 1.30508722710852 ] } },
{ "type": "Feature", "properties": { "Mall Name": "Lucky Plaza" }, "geometry": { "type": "Point", "coordinates": [ 103.834005158523993, 1.3044637897474 ] } },
{ "type": "Feature", "properties": { "Mall Name": "Marina Bay Sands" }, "geometry": { "type": "Point", "coordinates": [ 103.861005919028997, 1.28466203640592 ] } },
{ "type": "Feature", "properties": { "Mall Name": "The Shoppes at Marina Bay Sands" }, "geometry": { "type": "Point", "coordinates": [ 103.858982282970004, 1.28423496027027 ] } },
{ "type": "Feature", "properties": { "Mall Name": "Marina Bay Link Mall" }, "geometry": { "type": "Point", "coordinates": [ 103.854284863268006, 1.28003113385646 ] } },
{ "type": "Feature", "properties": { "Mall Name": "Marina Square" }, "geometry": { "type": "Point", "coordinates": [ 103.857048715656006, 1.29159480494333 ] } },
{ "type": "Feature", "properties": { "Mall Name": "Millenia Walk" }, "geometry": { "type": "Point", "coordinates": [ 103.860302888543004, 1.29267926922552 ] } },
{ "type": "Feature", "properties": { "Mall Name": "Ngee Ann City" }, "geometry": { "type": "Point", "coordinates": [ 103.834899517574996, 1.3022727300848 ] } },
{ "type": "Feature", "properties": { "Mall Name": "Orchard Central" }, "geometry": { "type": "Point", "coordinates": [ 103.839434733898997, 1.30083890839245 ] } },
{ "type": "Feature", "properties": { "Mall Name": "Orchard Gateway" }, "geometry": { "type": "Point", "coordinates": [ 103.838868886518995, 1.30160116957544 ] } },
{ "type": "Feature", "properties": { "Mall Name": "Orchard Plaza" }, "geometry": { "type": "Point", "coordinates": [ 103.841150144584006, 1.30125729409965 ] } },
{ "type": "Feature", "properties": { "Mall Name": "Midpoint Orchard" }, "geometry": { "type": "Point", "coordinates": [ 103.838659766022005, 1.30178778502846 ] } },
{ "type": "Feature", "properties": { "Mall Name": "Palais Renaissance" }, "geometry": { "type": "Point", "coordinates": [ 103.829588045188004, 1.30665484543191 ] } },
{ "type": "Feature", "properties": { "Mall Name": "People's Park Centre" }, "geometry": { "type": "Point", "coordinates": [ 103.843861556497998, 1.28564781446701 ] } },
{ "type": "Feature", "properties": { "Mall Name": "People's Park Complex" }, "geometry": { "type": "Point", "coordinates": [ 103.842590753292995, 1.28404487854559 ] } },
{ "type": "Feature", "properties": { "Mall Name": "Plaza Singapura" }, "geometry": { "type": "Point", "coordinates": [ 103.845067272937996, 1.30082071769235 ] } },
{ "type": "Feature", "properties": { "Mall Name": "Raffles City" }, "geometry": { "type": "Point", "coordinates": [ 103.853333627297005, 1.29397670992871 ] } },
{ "type": "Feature", "properties": { "Mall Name": "Scotts Square" }, "geometry": { "type": "Point", "coordinates": [ 103.833074706218994, 1.30579942993543 ] } },
{ "type": "Feature", "properties": { "Mall Name": "Sim Lim Square" }, "geometry": { "type": "Point", "coordinates": [ 103.853031869481995, 1.30290658774258 ] } },
{ "type": "Feature", "properties": { "Mall Name": "Singapore Shopping Centre" }, "geometry": { "type": "Point", "coordinates": [ 103.844628721031995, 1.28649701803051 ] } },
{ "type": "Feature", "properties": { "Mall Name": "The South Beach" }, "geometry": { "type": "Point", "coordinates": [ 103.856276242093998, 1.29498804392056 ] } },
{ "type": "Feature", "properties": { "Mall Name": "Square 2" }, "geometry": { "type": "Point", "coordinates": [ 103.850812513481998, 1.27822949964567 ] } },
{ "type": "Feature", "properties": { "Mall Name": "Sunshine Plaza" }, "geometry": { "type": "Point", "coordinates": [ 103.850556061949007, 1.30046735366415 ] } },
{ "type": "Feature", "properties": { "Mall Name": "Suntec City" }, "geometry": { "type": "Point", "coordinates": [ 103.857307495824003, 1.29350132535558 ] } },
{ "type": "Feature", "properties": { "Mall Name": "Tanglin Mall" }, "geometry": { "type": "Point", "coordinates": [ 103.823883490851998, 1.30485342102105 ] } },
{ "type": "Feature", "properties": { "Mall Name": "Tanjong Pagar Centre" }, "geometry": { "type": "Point", "coordinates": [ 103.842393171341996, 1.2755961982077 ] } },
{ "type": "Feature", "properties": { "Mall Name": "Tekka Centre" }, "geometry": { "type": "Point", "coordinates": [ 103.850134406359999, 1.30671098278725 ] } },
{ "type": "Feature", "properties": { "Mall Name": "The Adelphi" }, "geometry": { "type": "Point", "coordinates": [ 103.851184338698999, 1.29118503658447 ] } },
{ "type": "Feature", "properties": { "Mall Name": "The Paragon" }, "geometry": { "type": "Point", "coordinates": [ 103.835857545468997, 1.30387230879994 ] } },
{ "type": "Feature", "properties": { "Mall Name": "Tiong Bahru Plaza" }, "geometry": { "type": "Point", "coordinates": [ 103.827015256194002, 1.28645889472825 ] } },
{ "type": "Feature", "properties": { "Mall Name": "The Poiz" }, "geometry": { "type": "Point", "coordinates": [ 103.868659488194993, 1.33202729656296 ] } },
{ "type": "Feature", "properties": { "Mall Name": "Thomson Plaza" }, "geometry": { "type": "Point", "coordinates": [ 103.830309416130007, 1.35436282723449 ] } },
{ "type": "Feature", "properties": { "Mall Name": "United Square" }, "geometry": { "type": "Point", "coordinates": [ 103.843611443038, 1.31719450988559 ] } },
{ "type": "Feature", "properties": { "Mall Name": "Thomson V" }, "geometry": { "type": "Point", "coordinates": [ 103.835564729862, 1.35319495337208 ] } },
{ "type": "Feature", "properties": { "Mall Name": "Velocity@Novena Square" }, "geometry": { "type": "Point", "coordinates": [ 103.844033569198999, 1.31978949204523 ] } },
{ "type": "Feature", "properties": { "Mall Name": "Wheelock Place" }, "geometry": { "type": "Point", "coordinates": [ 103.830642027576999, 1.30467628730252 ] } },
{ "type": "Feature", "properties": { "Mall Name": "Wisma Atria" }, "geometry": { "type": "Point", "coordinates": [ 103.833205752807999, 1.30370477426147 ] } },
{ "type": "Feature", "properties": { "Mall Name": "Zhongshan Mall" }, "geometry": { "type": "Point", "coordinates": [ 103.846554377678999, 1.32694504484324 ] } },
{ "type": "Feature", "properties": { "Mall Name": "Bedok Mall" }, "geometry": { "type": "Point", "coordinates": [ 103.929189198890001, 1.32475054237912 ] } },
{ "type": "Feature", "properties": { "Mall Name": "Century Square" }, "geometry": { "type": "Point", "coordinates": [ 103.943727694120994, 1.35227804040128 ] } },
{ "type": "Feature", "properties": { "Mall Name": "Our Tampines Hub" }, "geometry": { "type": "Point", "coordinates": [ 103.940598001519007, 1.35218046898785 ] } },
{ "type": "Feature", "properties": { "Mall Name": "Changi City Point" }, "geometry": { "type": "Point", "coordinates": [ 103.962946043412998, 1.33408363820793 ] } },
{ "type": "Feature", "properties": { "Mall Name": "Downtown East" }, "geometry": { "type": "Point", "coordinates": [ 103.955689449481994, 1.3765903645695 ] } },
{ "type": "Feature", "properties": { "Mall Name": "Djitsun Mall Bedok" }, "geometry": { "type": "Point", "coordinates": [ 103.929554495614994, 1.32611970329469 ] } },
{ "type": "Feature", "properties": { "Mall Name": "Eastpoint Mall" }, "geometry": { "type": "Point", "coordinates": [ 103.953024618233997, 1.34270592355576 ] } },
{ "type": "Feature", "properties": { "Mall Name": "Jewel Changi Airport" }, "geometry": { "type": "Point", "coordinates": [ 103.989989170512004, 1.36006289399606 ] } },
{ "type": "Feature", "properties": { "Mall Name": "Katong Shopping Centre" }, "geometry": { "type": "Point", "coordinates": [ 103.901040040406997, 1.30382040183737 ] } },
{ "type": "Feature", "properties": { "Mall Name": "Katong Square" }, "geometry": { "type": "Point", "coordinates": [ 103.904617722414002, 1.30477683917233 ] } },
{ "type": "Feature", "properties": { "Mall Name": "Kallang Wave Mall" }, "geometry": { "type": "Point", "coordinates": [ 103.873149707590997, 1.30307515150401 ] } },
{ "type": "Feature", "properties": { "Mall Name": "Leisure Park Kallang" }, "geometry": { "type": "Point", "coordinates": [ 103.876152665088, 1.30222177381282 ] } },
{ "type": "Feature", "properties": { "Mall Name": "i12 Katong" }, "geometry": { "type": "Point", "coordinates": [ 103.905043928937999, 1.30522306203042 ] } },
{ "type": "Feature", "properties": { "Mall Name": "Parkway Parade" }, "geometry": { "type": "Point", "coordinates": [ 103.905279491523999, 1.30106975506311 ] } },
{ "type": "Feature", "properties": { "Mall Name": "Paya Lebar Square" }, "geometry": { "type": "Point", "coordinates": [ 103.892580778242007, 1.31881486980278 ] } },
{ "type": "Feature", "properties": { "Mall Name": "Roxy Square" }, "geometry": { "type": "Point", "coordinates": [ 103.904051120305994, 1.30432599904899 ] } },
{ "type": "Feature", "properties": { "Mall Name": "Singpost Centre" }, "geometry": { "type": "Point", "coordinates": [ 103.894894915961999, 1.31899666903663 ] } },
{ "type": "Feature", "properties": { "Mall Name": "Tampines 1" }, "geometry": { "type": "Point", "coordinates": [ 103.933979581361996, 1.34633535808984 ] } },
{ "type": "Feature", "properties": { "Mall Name": "Tampines Mall" }, "geometry": { "type": "Point", "coordinates": [ 103.944785968039, 1.35259361362837 ] } },
{ "type": "Feature", "properties": { "Mall Name": "White Sands" }, "geometry": { "type": "Point", "coordinates": [ 103.949733905672005, 1.37228761596577 ] } },
{ "type": "Feature", "properties": { "Mall Name": "City Plaza" }, "geometry": { "type": "Point", "coordinates": [ 103.893508573388999, 1.31470866320366 ] } },
{ "type": "Feature", "properties": { "Mall Name": "Elias Mall" }, "geometry": { "type": "Point", "coordinates": [ 103.94233582068, 1.37790533095468 ] } },
{ "type": "Feature", "properties": { "Mall Name": "Loyang Point" }, "geometry": { "type": "Point", "coordinates": [ 103.964635610477004, 1.36706634197242 ] } },
{ "type": "Feature", "properties": { "Mall Name": "888 Plaza" }, "geometry": { "type": "Point", "coordinates": [ 103.795316064774994, 1.43711856085535 ] } },
{ "type": "Feature", "properties": { "Mall Name": "Admiralty Place" }, "geometry": { "type": "Point", "coordinates": [ 103.801541769047006, 1.44042008562425 ] } },
{ "type": "Feature", "properties": { "Mall Name": "AMK Hub" }, "geometry": { "type": "Point", "coordinates": [ 103.848464053097004, 1.36925511350953 ] } },
{ "type": "Feature", "properties": { "Mall Name": "Canberra Plaza" }, "geometry": { "type": "Point", "coordinates": [ 103.830345369213006, 1.44349544527985 ] } },
{ "type": "Feature", "properties": { "Mall Name": "Causeway Point" }, "geometry": { "type": "Point", "coordinates": [ 103.785795816344006, 1.43590007901468 ] } },
{ "type": "Feature", "properties": { "Mall Name": "Woodlands Civic Centre" }, "geometry": { "type": "Point", "coordinates": [ 103.786816106255003, 1.43515024446739 ] } },
{ "type": "Feature", "properties": { "Mall Name": "Broadway Plaza" }, "geometry": { "type": "Point", "coordinates": [ 103.845949444498004, 1.37193729131781 ] } },
{ "type": "Feature", "properties": { "Mall Name": "Djitsun Mall" }, "geometry": { "type": "Point", "coordinates": [ 103.929554495614994, 1.32611970329469 ] } },
{ "type": "Feature", "properties": { "Mall Name": "Jubilee Square" }, "geometry": { "type": "Point", "coordinates": [ 103.847837565378001, 1.37178558575829 ] } },
{ "type": "Feature", "properties": { "Mall Name": "Junction Nine" }, "geometry": { "type": "Point", "coordinates": [ 103.841660985990003, 1.4331228398318 ] } },
{ "type": "Feature", "properties": { "Mall Name": "Marsiling Mall" }, "geometry": { "type": "Point", "coordinates": [ 103.779881891970007, 1.43354318137534 ] } },
{ "type": "Feature", "properties": { "Mall Name": "Northpoint City" }, "geometry": { "type": "Point", "coordinates": [ 103.836419992398007, 1.42822560922688 ] } },
{ "type": "Feature", "properties": { "Mall Name": "Sembawang Shopping Centre" }, "geometry": { "type": "Point", "coordinates": [ 103.824832415833001, 1.44185325264629 ] } },
{ "type": "Feature", "properties": { "Mall Name": "Sun Plaza" }, "geometry": { "type": "Point", "coordinates": [ 103.819523749458, 1.44823113453257 ] } },
{ "type": "Feature", "properties": { "Mall Name": "Vista Point" }, "geometry": { "type": "Point", "coordinates": [ 103.794104795966007, 1.4308011390122 ] } },
{ "type": "Feature", "properties": { "Mall Name": "Wisteria Mall" }, "geometry": { "type": "Point", "coordinates": [ 103.841317292607997, 1.41798969122298 ] } },
{ "type": "Feature", "properties": { "Mall Name": "Woodlands Mart" }, "geometry": { "type": "Point", "coordinates": [ 103.798162285805006, 1.44564787003157 ] } },
{ "type": "Feature", "properties": { "Mall Name": "Woodlands North Plaza" }, "geometry": { "type": "Point", "coordinates": [ 103.790548015512002, 1.44275334327795 ] } },
{ "type": "Feature", "properties": { "Mall Name": "Waterway Point" }, "geometry": { "type": "Point", "coordinates": [ 103.902172248289006, 1.40637933605759 ] } },
{ "type": "Feature", "properties": { "Mall Name": "Compass One" }, "geometry": { "type": "Point", "coordinates": [ 103.895070543840006, 1.39205314156706 ] } },
{ "type": "Feature", "properties": { "Mall Name": "Hougang Mall" }, "geometry": { "type": "Point", "coordinates": [ 103.893788141349006, 1.37248308734511 ] } },
{ "type": "Feature", "properties": { "Mall Name": "Heartland Mall" }, "geometry": { "type": "Point", "coordinates": [ 103.885169070198003, 1.35954450890401 ] } },
{ "type": "Feature", "properties": { "Mall Name": "NEX" }, "geometry": { "type": "Point", "coordinates": [ 103.872296143862002, 1.35076935257845 ] } },
{ "type": "Feature", "properties": { "Mall Name": "Buangkok Square" }, "geometry": { "type": "Point", "coordinates": [ 103.881623070163997, 1.38433426615655 ] } },
{ "type": "Feature", "properties": { "Mall Name": "Greenwich V" }, "geometry": { "type": "Point", "coordinates": [ 103.869135978173006, 1.38739539397015 ] } },
{ "type": "Feature", "properties": { "Mall Name": "Hougang 1" }, "geometry": { "type": "Point", "coordinates": [ 103.889828868221997, 1.35664284566921 ] } },
{ "type": "Feature", "properties": { "Mall Name": "Hougang Green Shopping Mall" }, "geometry": { "type": "Point", "coordinates": [ 103.887847089440001, 1.37931783499145 ] } },
{ "type": "Feature", "properties": { "Mall Name": "Hougang Rivercourt" }, "geometry": { "type": "Point", "coordinates": [ 103.894742116488004, 1.36220591877146 ] } },
{ "type": "Feature", "properties": { "Mall Name": "myVillage At Serangoon Garden" }, "geometry": { "type": "Point", "coordinates": [ 103.865159501441994, 1.36511490572797 ] } },
{ "type": "Feature", "properties": { "Mall Name": "Northshore Plaza" }, "geometry": { "type": "Point", "coordinates": [ 103.902074379501997, 1.41676127156324 ] } },
{ "type": "Feature", "properties": { "Mall Name": "Oasis Terraces" }, "geometry": { "type": "Point", "coordinates": [ 103.913215101342999, 1.40278015725693 ] } },
{ "type": "Feature", "properties": { "Mall Name": "Punggol Plaza" }, "geometry": { "type": "Point", "coordinates": [ 103.913047323222997, 1.39423719717117 ] } },
{ "type": "Feature", "properties": { "Mall Name": "Rivervale Mall" }, "geometry": { "type": "Point", "coordinates": [ 103.904471600025005, 1.39219777838449 ] } },
{ "type": "Feature", "properties": { "Mall Name": "Rivervale Plaza" }, "geometry": { "type": "Point", "coordinates": [ 103.901988424926998, 1.38550420775531 ] } },
{ "type": "Feature", "properties": { "Mall Name": "The Seletar Mall" }, "geometry": { "type": "Point", "coordinates": [ 103.876125507257001, 1.39147015374628 ] } },
{ "type": "Feature", "properties": { "Mall Name": "Upper Serangoon Shopping Centre" }, "geometry": { "type": "Point", "coordinates": [ 103.878828134895997, 1.35348082277147 ] } },
{ "type": "Feature", "properties": { "Mall Name": "Beauty World Centre" }, "geometry": { "type": "Point", "coordinates": [ 103.776539385405997, 1.34241264188642 ] } },
{ "type": "Feature", "properties": { "Mall Name": "Beauty World Plaza" }, "geometry": { "type": "Point", "coordinates": [ 103.776259359853995, 1.34180018619223 ] } },
{ "type": "Feature", "properties": { "Mall Name": "Bukit Panjang Plaza" }, "geometry": { "type": "Point", "coordinates": [ 103.764377765934995, 1.37988291404114 ] } },
{ "type": "Feature", "properties": { "Mall Name": "Bukit Timah Plaza" }, "geometry": { "type": "Point", "coordinates": [ 103.778585430974999, 1.3386316527745 ] } },
{ "type": "Feature", "properties": { "Mall Name": "Fajar Shopping Centre" }, "geometry": { "type": "Point", "coordinates": [ 103.770868459632993, 1.38357469942896 ] } },
{ "type": "Feature", "properties": { "Mall Name": "Greenridge Shopping Centre" }, "geometry": { "type": "Point", "coordinates": [ 103.766228468185005, 1.38540569283271 ] } },
{ "type": "Feature", "properties": { "Mall Name": "Hillion Mall" }, "geometry": { "type": "Point", "coordinates": [ 103.763829458719997, 1.37841165144214 ] } },
{ "type": "Feature", "properties": { "Mall Name": "HillV2" }, "geometry": { "type": "Point", "coordinates": [ 103.764172920060005, 1.36267450828024 ] } },
{ "type": "Feature", "properties": { "Mall Name": "Junction 10" }, "geometry": { "type": "Point", "coordinates": [ 103.760106974821994, 1.38055127973087 ] } },
{ "type": "Feature", "properties": { "Mall Name": "Keat Hong Shopping Centre" }, "geometry": { "type": "Point", "coordinates": [ 103.744393648767996, 1.37736607441394 ] } },
{ "type": "Feature", "properties": { "Mall Name": "Limbang Shopping Centre" }, "geometry": { "type": "Point", "coordinates": [ 103.743099573441995, 1.3920738867617 ] } },
{ "type": "Feature", "properties": { "Mall Name": "Lot One" }, "geometry": { "type": "Point", "coordinates": [ 103.745238868238005, 1.38506992325619 ] } },
{ "type": "Feature", "properties": { "Mall Name": "Rail Mall" }, "geometry": { "type": "Point", "coordinates": [ 103.768137724846994, 1.35773050150178 ] } },
{ "type": "Feature", "properties": { "Mall Name": "Sunshine Place" }, "geometry": { "type": "Point", "coordinates": [ 103.739015486021003, 1.37789727709418 ] } },
{ "type": "Feature", "properties": { "Mall Name": "Teck Whye Shopping Centre" }, "geometry": { "type": "Point", "coordinates": [ 103.752483841198995, 1.38004752975397 ] } },
{ "type": "Feature", "properties": { "Mall Name": "West Mall" }, "geometry": { "type": "Point", "coordinates": [ 103.749123892910006, 1.35037541626109 ] } },
{ "type": "Feature", "properties": { "Mall Name": "Yew Tee Point" }, "geometry": { "type": "Point", "coordinates": [ 103.746662121143004, 1.39705741516141 ] } },
{ "type": "Feature", "properties": { "Mall Name": "Yew Tee Square" }, "geometry": { "type": "Point", "coordinates": [ 103.747188486452998, 1.39836942665376 ] } },
{ "type": "Feature", "properties": { "Mall Name": "321 Clementi" }, "geometry": { "type": "Point", "coordinates": [ 103.764986676364998, 1.31200212030821 ] } },
{ "type": "Feature", "properties": { "Mall Name": "The Clementi Mall" }, "geometry": { "type": "Point", "coordinates": [ 103.764423054188995, 1.31489619639366 ] } },
{ "type": "Feature", "properties": { "Mall Name": "IMM" }, "geometry": { "type": "Point", "coordinates": [ 103.746894773007995, 1.33487526118006 ] } },
{ "type": "Feature", "properties": { "Mall Name": "JCube" }, "geometry": { "type": "Point", "coordinates": [ 103.740187071348004, 1.33332312550425 ] } },
{ "type": "Feature", "properties": { "Mall Name": "Jem" }, "geometry": { "type": "Point", "coordinates": [ 103.743503708169001, 1.33305999269581 ] } },
{ "type": "Feature", "properties": { "Mall Name": "Westgate" }, "geometry": { "type": "Point", "coordinates": [ 103.742766484423996, 1.33415767556867 ] } },
{ "type": "Feature", "properties": { "Mall Name": "Jurong Point" }, "geometry": { "type": "Point", "coordinates": [ 103.706685012926002, 1.3394520043632 ] } },
{ "type": "Feature", "properties": { "Mall Name": "Pioneer Mall" }, "geometry": { "type": "Point", "coordinates": [ 103.697174842118002, 1.34169239214292 ] } },
{ "type": "Feature", "properties": { "Mall Name": "The Star Vista" }, "geometry": { "type": "Point", "coordinates": [ 103.788462732265998, 1.30681500712523 ] } },
{ "type": "Feature", "properties": { "Mall Name": "Alexandra Central" }, "geometry": { "type": "Point", "coordinates": [ 103.805283367957998, 1.28728320930592 ] } },
{ "type": "Feature", "properties": { "Mall Name": "Anchorpoint" }, "geometry": { "type": "Point", "coordinates": [ 103.805607779398997, 1.28893477974497 ] } },
{ "type": "Feature", "properties": { "Mall Name": "Boon Lay Shopping Centre" }, "geometry": { "type": "Point", "coordinates": [ 103.712472819666004, 1.34637376407877 ] } },
{ "type": "Feature", "properties": { "Mall Name": "Grantral Mall" }, "geometry": { "type": "Point", "coordinates": [ 103.765147487481997, 1.31427043922294 ] } },
{ "type": "Feature", "properties": { "Mall Name": "Fairprice Hub" }, "geometry": { "type": "Point", "coordinates": [ 103.6784, 1.325618 ] } },
{ "type": "Feature", "properties": { "Mall Name": "Gek Poh Shopping Centre" }, "geometry": { "type": "Point", "coordinates": [ 103.697739629737995, 1.3487416466288 ] } },
{ "type": "Feature", "properties": { "Mall Name": "Rochester Mall" }, "geometry": { "type": "Point", "coordinates": [ 103.788446680147999, 1.30540765569962 ] } },
{ "type": "Feature", "properties": { "Mall Name": "Taman Jurong Shopping Centre" }, "geometry": { "type": "Point", "coordinates": [ 103.720462024278007, 1.33484487471259 ] } },
{ "type": "Feature", "properties": { "Mall Name": "West Coast Plaza" }, "geometry": { "type": "Point", "coordinates": [ 103.76610375397, 1.30358622534992 ] } },
{ "type": "Feature", "properties": { "Mall Name": "Queensway Shopping Centre" }, "geometry": { "type": "Point", "coordinates": [ 103.803391140455005, 1.2876179255874 ] } },
{ "type": "Feature", "properties": { "Mall Name": "Pasir Ris Mall" }, "geometry": { "type": "Point", "coordinates": [ 103.94879, 1.37385 ] } },
{ "type": "Feature", "properties": { "Mall Name": "Lentor Modern" }, "geometry": { "type": "Point", "coordinates": [ 103.83455, 1.38574 ] } },
{ "type": "Feature", "properties": { "Mall Name": "Parc Point" }, "geometry": { "type": "Point", "coordinates": [ 103.7381, 1.3602 ] } }
]
}
